{"objects":{"water":{"type":"GeometryCollection","geometries":[{"type":"Polygon","properties":{"source":"openstreetmapdata.com","kind":"ocean","name":"","area":432181655,"sort_rank":200,"min_zoom":0.0},"arcs":[[3]]}]},"buildings":{"type":"GeometryCollection","geometries":[]},"places":{"type":"GeometryCollection","geometries":[]},"transit":{"type":"GeometryCollection","geometries":[]},"pois":{"type":"GeometryCollection","geometries":[]},"boundaries":{"type":"GeometryCollection","geometries":[{"type":"LineString","properties":{"kind":"county","name":"San Francisco City and County","sort_rank":254,"kind_detail":"6","min_zoom":10.0,"source":"openstreetmap.org","maritime_boundary":true,"name:zh":"\u65e7\u91d1\u5c71","id":-396487,"osm_relation":true},"arcs":[0]},{"type":"LineString","properties":{"name:pt":"Calif\u00f3rnia","name:cy":"Califfornia","name:ko":"\uce98\ub9ac\ud3ec\ub2c8\uc544","name:cv":"\u041a\u0430\u043b\u0438\u0444\u043e\u0440\u043d\u0438","name:cs":"Kalifornie","name:kw":"Kaliforni","min_zoom":8.0,"name:tl":"Kaliporniya","name:sv":"Kalifornien","name:os":"\u041a\u0430\u043b\u0438\u0444\u043e\u0440\u043d\u0438","name:pl":"Kalifornia","name:ta":"\u0b95\u0bb2\u0bbf\u0baa\u0bcb\u0bb0\u0bcd\u0ba9\u0bbf\u0baf\u0bbe","name:ca":"Calif\u00f2rnia","name:ka":"\u10d9\u10d0\u10da\u10d8\u10e4\u10dd\u10e0\u10dc\u10d8\u10d0","sort_rank":256,"name:da":"Californien","name:de":"Kalifornien","source":"openstreetmap.org","osm_relation":true,"name:kn":"\u0c95\u0ccd\u0caf\u0cbe\u0cb2\u0cbf\u0cab\u0cca\u0cb0\u0ccd\u0ca8\u0cbf\u0caf","name:tr":"Kaliforniya","name:uz":"Kaliforniya","name:he":"\u05e7\u05dc\u05d9\u05e4\u05d5\u05e8\u05e0\u05d9\u05d4","name:eo":"Kalifornio","name:uk":"\u041a\u0430\u043b\u0456\u0444\u043e\u0440\u043d\u0456\u044f","name:hy":"\u053f\u0561\u056c\u056b\u0586\u0578\u0580\u0576\u056b\u0561","name:ht":"Kalif\u00f2ni","name:hu":"Kalifornia","name:hr":"Kalifornija","name:oc":"Calif\u00f2rnia","name:el":"\u039a\u03b1\u03bb\u03b9\u03c6\u03cc\u03c1\u03bd\u03b9\u03b1","kind":"region","name":"California","name:th":"\u0e23\u0e31\u0e10\u0e41\u0e04\u0e25\u0e34\u0e1f\u0e2d\u0e23\u0e4c\u0e40\u0e19\u0e35\u0e22","name:yi":"\u05e7\u05d0\u05dc\u05d9\u05e4\u05d0\u05e8\u05e0\u05d9\u05e2","name:az":"Kaliforniya","name:mr":"\u0915\u0945\u0932\u093f\u092b\u094b\u0930\u094d\u0928\u093f\u092f\u093e","name:ar":"\u0643\u0627\u0644\u064a\u0641\u0648\u0631\u0646\u064a\u0627","name:is":"Kaliforn\u00eda","name:iu":"\u1473\u14d6\u1434\u1550\u14c3\u140a","name:ml":"\u0d15\u0d3e\u0d32\u0d3f\u0d2b\u0d4b\u0d30\u0d4d\u200d\u0d23\u0d3f\u0d2f","name:vi":"Ca Li","name:mn":"\u041a\u0430\u043b\u0438\u0444\u043e\u0440\u043d\u0438","name:mi":"Karap\u014dnia","id":-165475,"name:af":"Kaliforni\u00eb","name:fa":"\u06a9\u0627\u0644\u06cc\u0641\u0631\u0646\u06cc\u0627","name:lt":"Kalifornija","kind_detail":"4","name:hi":"\u0915\u0948\u0932\u093f\u092b\u093c\u094b\u0930\u094d\u0928\u093f\u092f\u093e","name:mg":"Kalifornia","name:fo":"Kalifornia","name:fr":"Californie","name:fy":"Kalifornje","name:zh":"\u52a0\u5229\u798f\u5c3c\u4e9a\u5dde","name:sl":"Kalifornija","name:nl":"Californi\u00eb","name:ja":"\u30ab\u30ea\u30d5\u30a9\u30eb\u30cb\u30a2\u5dde","name:sh":"Kalifornija","name:br":"Kalifornia","name:eu":"Kalifornia","name:bn":"\u0995\u09cd\u09af\u09be\u09b2\u09bf\u09ab\u09cb\u09b0\u09cd\u09a8\u09bf\u09af\u09bc\u09be","name:sk":"Kalifornia","name:ru":"\u041a\u0430\u043b\u0438\u0444\u043e\u0440\u043d\u0438\u044f","name:be":"\u041a\u0430\u043b\u0456\u0444\u043e\u0440\u043d\u0456\u044f","name:bg":"\u041a\u0430\u043b\u0438\u0444\u043e\u0440\u043d\u0438\u044f","name:sr":"\u041a\u0430\u043b\u0438\u0444\u043e\u0440\u043d\u0438\u0458\u0430","name:nv":"Ak\u00e9\u00e9h\u00e1sh\u012f\u0301\u012f\u0301 Hahoodzo","name:gd":"Calaf\u00f2rnia","maritime_boundary":true,"name:fi":"Kalifornia"},"arcs":[1]},{"type":"LineString","properties":{"name:pt":"S\u00e3o Francisco","name:ko":"\uc0cc\ud504\ub780\uc2dc\uc2a4\ucf54","min_zoom":10.0,"name:vi":"C\u1ef1u Kim S\u01a1n","id":-111968,"osm_relation":true,"name:fa":"\u0633\u0627\u0646 \u0641\u0631\u0627\u0646\u0633\u06cc\u0633\u06a9\u0648","kind":"locality","name":"San Francisco","alt_name:vi":"X\u0103ng Ph\u0103ng","sort_rank":252,"kind_detail":"8","old_name:vi":"C\u1ef1u Kim S\u01a1n","source":"openstreetmap.org","maritime_boundary":true,"name:zh":"\u65e7\u91d1\u5c71"},"arcs":[2]}]},"roads":{"type":"GeometryCollection","geometries":[]},"earth":{"type":"GeometryCollection","geometries":[]},"landuse":{"type":"GeometryCollection","geometries":[]}},"type":"Topology","transform":{"translate":[-122.607421875,37.7185903256],"scale":[0.0000214577,0.0000169656]},"arcs":[[[917,4096],[141,-526],[160,-1117],[221,-2453]],[[917,4096],[141,-526],[160,-1117],[221,-2453]],[[917,4096],[141,-526],[160,-1117],[221,-2453]],[[4096,4096],[0,-4096],[-4096,0],[0,4096],[4096,0]]]}